IRIDIUM 144             
1 43249U 18030A   25121.94517857  .00000041  00000+0  75716-5 0  9996
2 43249  86.3922 102.3416 0002269  91.2606 268.8849 14.34217603371214
IRIDIUM 149             
1 43250U 18030B   25121.95152139  .00000021  00000+0  49675-6 0  9991
2 43250  86.3925 102.3110 0002292  91.0041 269.1417 14.34217506371214
IRIDIUM 157             
1 43251U 18030C   25121.90078113 -.00000033  00000+0 -19017-4 0  9996
2 43251  86.3926 102.3762 0002237  81.5421 278.6028 14.34216401371186
IRIDIUM 140             
1 43252U 18030D   25121.91980554  .00000104  00000+0  29919-4 0  9998
2 43252  86.3923 102.3817 0002291  93.0133 267.1325 14.34218661371243
IRIDIUM 145             
1 43253U 18030E   25121.90712278  .00000027  00000+0  27296-5 0  9995
2 43253  86.3924 102.3601 0002527  95.9223 264.2261 14.34217763371170
IRIDIUM 146             
1 43254U 18030F   25121.88809543  .00000514  00000+0  17649-3 0  9995
2 43254  86.3925 102.3816 0002545  96.4280 263.7205 14.34219045371187
IRIDIUM 148             
1 43255U 18030G   25121.92615464  .00000337  00000+0  11315-3 0  9995
2 43255  86.3925 102.4027 0002504  88.6891 271.4591 14.34217257371232
IRIDIUM 142             
1 43256U 18030H   25121.89444178  .00000411  00000+0  13982-3 0  9999
2 43256  86.3923 102.3196 0002667  95.5853 264.5647 14.34217566371184
